NORAD_CAT_ID,OBJECT_NAME,OBJECT_TYPE,EPOCH,MEAN_MOTION,ECCENTRICITY,INCLINATION,RA_OF_ASC_NODE,ARG_OF_PERICENTER,MEAN_ANOMALY,BSTAR,MEAN_MOTION_DOT,MEAN_MOTION_DDOT,TLE_LINE0,TLE_LINE1,TLE_LINE2,SEMIMAJOR_AXIS,PERIOD,APOGEE,PERIGEE,DECAYED
49449.0,STARLINK-3137,PAYLOAD,2023-03-29 00:24:52,15.08852922,0.0001375,53.2177,12.4899,102.6787,257.4359,9.5872e-05,1.239e-05,0.0,0 STARLINK-3137,1 49449U 21104AT  23088.01727339  .00001239  00000-0  95872-4 0  9991,2 49449  53.2177  12.4899 0001375 102.6787 257.4359 15.08852922 77312,6917.841,95.437,540.657,538.755,0.0
49449.0,STARLINK-3137,PAYLOAD,2023-03-29 05:11:01,15.08862831,0.0001165,53.2175,11.5967,82.7996,277.3129,0.00026079,3.868e-05,0.0,0 STARLINK-3137,1 49449U 21104AT  23088.21598821  .00003868  00000-0  26079-3 0  9997,2 49449  53.2175  11.5967 0001165  82.7996 277.3129 15.08862831 76262,6917.811,95.436,540.482,538.87,0.0
49449.0,STARLINK-3137,PAYLOAD,2023-03-30 05:01:48,15.08857839,0.0001061,53.2187,7.1375,87.0487,273.0627,8.8581e-06,-1.47e-06,0.0,0 STARLINK-3137,1 49449U 21104AT  23089.20959043 -.00000147  00000-0  88581-5 0  9990,2 49449  53.2187   7.1375 0001061  87.0487 273.0627 15.08857839 77491,6917.826,95.436,540.425,538.957,0.0
49449.0,STARLINK-3137,PAYLOAD,2023-03-30 11:23:22,15.08821131,0.0001122,53.2178,5.9483,88.4316,271.6805,-0.00038363,-6.385e-05,0.0,0 STARLINK-3137,1 49449U 21104AT  23089.47456714 -.00006385  00000-0 -38363-3 0  9998,2 49449  53.2178   5.9483 0001122  88.4316 271.6805 15.08821131 77534,6917.938,95.439,540.579,539.027,0.0
49449.0,STARLINK-3137,PAYLOAD,2023-03-31 03:17:13,15.08838043,0.000121,53.2176,2.9739,101.6519,258.4609,-4.0585e-05,-9.34e-06,0.0,0 STARLINK-3137,1 49449U 21104AT  23090.13696639 -.00000934  00000-0 -40585-4 0  9999,2 49449  53.2176   2.9739 0001210 101.6519 258.4609 15.08838043 77630,6917.886,95.438,540.588,538.914,0.0
49449.0,STARLINK-3137,PAYLOAD,2023-04-01 03:08:00,15.08868021,0.000111,53.2179,358.5146,86.5473,273.5646,0.00049866,7.663e-05,0.0,0 STARLINK-3137,1 49449U 21104AT  23091.13055728  .00007663  00000-0  49866-3 0  9992,2 49449  53.2179 358.5146 0001110  86.5473 273.5646 15.08868021 77788,6917.795,95.436,540.428,538.892,0.0
49449.0,STARLINK-3137,PAYLOAD,2023-04-01 23:48:02,15.08833771,0.0002027,53.2177,354.6513,71.5213,288.5999,0.00019258,2.778e-05,0.0,0 STARLINK-3137,1 49449U 21104AT  23091.99169944  .00002778  00000-0  19258-3 0  9996,2 49449  53.2177 354.6513 0002027  71.5213 288.5999 15.08833771 77911,6917.899,95.438,541.167,538.362,0.0
49449.0,STARLINK-3137,PAYLOAD,2023-04-02 20:28:03,15.08848857,0.0001752,53.2178,350.7869,47.3771,312.7369,-3.6336e-06,-3.46e-06,0.0,0 STARLINK-3137,1 49449U 21104AT  23092.85281293 -.00000346  00000-0 -36336-5 0  9993,2 49449  53.2178 350.7869 0001752  47.3771 312.7369 15.08848857 78044,6917.853,95.437,540.93,538.506,0.0
49449.0,STARLINK-3137,PAYLOAD,2023-04-02 22:03:26,15.08851403,0.0001915,53.2181,350.4902,51.4555,308.6608,1.0613e-05,-1.19e-06,0.0,0 STARLINK-3137,1 49449U 21104AT  23092.91905131 -.00000119  00000-0  10613-4 0  9990,2 49449  53.2181 350.4902 0001915  51.4555 308.6608 15.08851403 76971,6917.846,95.437,541.035,538.386,0.0
49449.0,STARLINK-3137,PAYLOAD,2023-04-03 02:49:34,15.08861842,0.0001345,53.2177,349.593,70.4047,289.709,0.00012513,1.705e-05,0.0,0 STARLINK-3137,1 49449U 21104AT  23093.11775998  .00001705  00000-0  12513-3 0  9990,2 49449  53.2177 349.5930 0001345  70.4047 289.7090 15.08861842 78086,6917.814,95.436,540.609,538.748,0.0
49449.0,STARLINK-3137,PAYLOAD,2023-04-04 02:40:22,15.08852118,0.0001413,53.2177,345.1334,72.4476,287.667,0.00022859,3.353e-05,0.0,0 STARLINK-3137,1 49449U 21104AT  23094.11136723  .00003353  00000-0  22859-3 0  9993,2 49449  53.2177 345.1334 0001413  72.4476 287.6670 15.08852118 78234,6917.843,95.437,540.686,538.731,0.0
49449.0,STARLINK-3137,PAYLOAD,2023-04-04 21:44:59,15.08841526,0.0001312,53.2172,341.5643,65.3113,294.8015,-5.3495e-05,-1.139e-05,0.0,0 STARLINK-3137,1 49449U 21104AT  23094.90624809 -.00001139  00000-0 -53495-4 0  9990,2 49449  53.2172 341.5643 0001312  65.3113 294.8015 15.08841526 77276,6917.876,95.437,540.648,538.833,0.0
49449.0,STARLINK-3137,PAYLOAD,2023-04-05 02:31:09,15.08847202,0.0001336,53.2177,340.6726,83.1577,276.9567,8.003e-05,9.86e-06,0.0,0 STARLINK-3137,1 49449U 21104AT  23095.10496529  .00000986  00000-0  80030-4 0  9991,2 49449  53.2177 340.6726 0001336  83.1577 276.9567 15.08847202 78384,6917.858,95.437,540.648,538.799,0.0
49449.0,STARLINK-3137,PAYLOAD,2023-04-05 08:52:41,15.08840261,0.0001754,53.2171,339.4836,78.1688,281.95,-8.3635e-06,-4.21e-06,0.0,0 STARLINK-3137,1 49449U 21104AT  23095.36992807 -.00000421  00000-0 -83635-5 0  9990,2 49449  53.2171 339.4836 0001754  78.1688 281.9500 15.08840261 77343,6917.88,95.438,540.958,538.531,0.0
49449.0,STARLINK-3137,PAYLOAD,2023-04-05 20:00:23,15.08839016,0.000123,53.2171,337.402,95.8682,264.245,-6.0549e-05,-1.251e-05,0.0,0 STARLINK-3137,1 49449U 21104AT  23095.83360773 -.00001251  00000-0 -60549-4 0  9993,2 49449  53.2171 337.4020 0001230  95.8682 264.2450 15.08839016 77417,6917.883,95.438,540.599,538.897,0.0
49449.0,STARLINK-3137,PAYLOAD,2023-04-05 23:11:09,15.08839691,0.0001023,53.2168,336.8087,99.3034,260.8074,-2.6934e-05,-7.16e-06,0.0,0 STARLINK-3137,1 49449U 21104AT  23095.96608709 -.00000716  00000-0 -26934-4 0  9996,2 49449  53.2168 336.8087 0001023  99.3034 260.8074 15.08839691 78514,6917.881,95.438,540.454,539.039,0.0
49449.0,STARLINK-3137,PAYLOAD,2023-04-06 02:21:56,15.0884207,0.0001055,53.2169,336.2133,92.6832,267.4281,4.092e-05,3.64e-06,0.0,0 STARLINK-3137,1 49449U 21104AT  23096.09856664  .00000364  00000-0  40920-4 0  9994,2 49449  53.2169 336.2133 0001055  92.6832 267.4281 15.08842070 77458,6917.874,95.437,540.469,539.009,0.0
49449.0,STARLINK-3137,PAYLOAD,2023-04-07 00:37:20,15.0883758,8.84e-05,53.2164,332.0494,89.0096,271.0997,-2.8771e-05,-7.46e-06,0.0,0 STARLINK-3137,1 49449U 21104AT  23097.02593300 -.00000746  00000-0 -28771-4 0  9999,2 49449  53.2164 332.0494 0000884  89.0096 271.0997 15.08837580 78678,6917.888,95.438,540.364,539.141,0.0
49449.0,STARLINK-3137,PAYLOAD,2023-04-08 02:03:30,15.08843092,8.87e-05,53.2161,327.2916,78.1975,281.9116,0.00013296,1.829e-05,0.0,0 STARLINK-3137,1 49449U 21104AT  23098.08577302  .00001829  00000-0  13296-3 0  9996,2 49449  53.2161 327.2916 0000887  78.1975 281.9116 15.08843092 78834,6917.871,95.437,540.35,539.122,0.0
49449.0,STARLINK-3137,PAYLOAD,2023-04-08 21:08:08,15.08840019,0.0001218,53.2168,323.7255,62.4941,297.6175,0.00010107,1.321e-05,0.0,0 STARLINK-3137,1 49449U 21104AT  23098.88065762  .00001321  00000-0  10107-3 0  9991,2 49449  53.2168 323.7255 0001218  62.4941 297.6175 15.08840019 78954,6917.88,95.438,540.588,538.903,0.0
49449.0,STARLINK-3137,PAYLOAD,2023-04-09 00:18:54,15.08843278,0.000104,53.2164,323.1286,75.7417,284.3691,0.00016144,2.283e-05,0.0,0 STARLINK-3137,1 49449U 21104AT  23099.01313572  .00002283  00000-0  16144-3 0  9997,2 49449  53.2164 323.1286 0001040  75.7417 284.3691 15.08843278 77894,6917.87,95.437,540.455,539.016,0.0
49449.0,STARLINK-3137,PAYLOAD,2023-04-09 20:58:55,15.08844512,9.96e-05,53.2165,319.2627,80.3251,279.7854,8.917e-05,1.132e-05,0.0,0 STARLINK-3137,1 49449U 21104AT  23099.87425485  .00001132  00000-0  89170-4 0  9990,2 49449  53.2165 319.2627 0000996  80.3251 279.7854 15.08844512 78024,6917.867,95.437,540.421,539.043,0.0
49449.0,STARLINK-3137,PAYLOAD,2023-04-10 00:09:41,15.08848065,9.34e-05,53.216,318.6676,88.6961,271.4138,0.00015071,2.112e-05,0.0,0 STARLINK-3137,1 49449U 21104AT  23100.00673268  .00002112  00000-0  15071-3 0  9999,2 49449  53.2160 318.6676 0000934  88.6961 271.4138 15.08848065 79120,6917.856,95.437,540.367,539.075,0.0
49449.0,STARLINK-3137,PAYLOAD,2023-04-10 20:49:42,15.08845987,0.0001224,53.2173,314.8029,81.8647,278.2484,6.5043e-05,7.48e-06,0.0,0 STARLINK-3137,1 49449U 21104AT  23100.86785458  .00000748  00000-0  65043-4 0  9996,2 49449  53.2173 314.8029 0001224  81.8647 278.2484 15.08845987 78176,6917.862,95.437,540.574,538.88,0.0
49449.0,STARLINK-3137,PAYLOAD,2023-04-11 00:00:28,15.08844609,0.0001208,53.2167,314.208,79.5694,280.5434,6.4538e-05,7.4e-06,0.0,0 STARLINK-3137,1 49449U 21104AT  23101.00033460  .00000740  00000-0  64538-4 0  9992,2 49449  53.2167 314.2080 0001208  79.5694 280.5434 15.08844609 78191,6917.866,95.437,540.567,538.896,0.0
49449.0,STARLINK-3137,PAYLOAD,2023-04-11 20:40:30,15.08838379,0.0001268,53.2167,310.3407,86.4864,273.6274,-2.8081e-05,-7.35e-06,0.0,0 STARLINK-3137,1 49449U 21104AT  23101.86145926 -.00000735  00000-0 -28081-4 0  9996,2 49449  53.2167 310.3407 0001268  86.4864 273.6274 15.08838379 79400,6917.885,95.438,540.628,538.873,0.0
49449.0,STARLINK-3137,PAYLOAD,2023-04-11 23:51:16,15.08839464,0.0001144,53.2177,309.7461,87.0525,273.0598,-3.1692e-05,-7.92e-06,0.0,0 STARLINK-3137,1 49449U 21104AT  23101.99394127 -.00000792  00000-0 -31692-4 0  9994,2 49449  53.2177 309.7461 0001144  87.0525 273.0598 15.08839464 78348,6917.882,95.438,540.538,538.956,0.0
49449.0,STARLINK-3137,PAYLOAD,2023-04-13 06:03:35,15.0884032,0.0001326,53.2195,304.0959,81.0874,279.0268,4.3839e-05,4.1e-06,0.0,0 STARLINK-3137,1 49449U 21104AT  23103.25249983  .00000410  00000-0  43839-4 0  9995,2 49449  53.2195 304.0959 0001326  81.0874 279.0268 15.08840320 78535,6917.879,95.438,540.662,538.827,0.0
49449.0,STARLINK-3137,PAYLOAD,2023-04-13 20:22:04,15.08840841,0.0001327,53.2177,301.4221,88.7514,271.363,9.7462e-05,1.264e-05,0.0,0 STARLINK-3137,1 49449U 21104AT  23103.84866076  .00001264  00000-0  97462-4 0  9997,2 49449  53.2177 301.4221 0001327  88.7514 271.3630 15.08840841 79700,6917.878,95.438,540.661,538.825,0.0
49449.0,STARLINK-3137,PAYLOAD,2023-04-14 12:15:55,15.08841916,9.62e-05,53.2202,298.4506,67.1686,292.9408,7.2552e-05,8.67e-06,0.0,0 STARLINK-3137,1 49449U 21104AT  23104.51106138  .00000867  00000-0  72552-4 0  9999,2 49449  53.2202 298.4506 0000962  67.1686 292.9408 15.08841916 78722,6917.875,95.437,540.405,539.074,0.0
